     4.02           N: GNSS NAV DATA    M: Mixed            RINEX VERSION / TYPE
BNC 2.13.4          user                20260406 100001 UTC PGM / RUN BY / DATE
Source: RTCM_3.3 products.igs-ip.net/BCEP00BKG0             COMMENT
    18                                                      LEAP SECONDS
                                                            END OF HEADER
> EPH E13 FNAV
E13 2026 04 06 10 20 00-5.190644878894e-05-8.242295734817e-13 0.000000000000e+00
     7.900000000000e+01-1.033125000000e+02 2.561892427389e-09-1.465171687013e+00
    -4.746019840240e-06 3.323151031509e-04 1.883134245872e-06 5.440609355927e+03
     1.236000000000e+05-4.097819328308e-08 2.626838160388e+00-4.842877388000e-08
     9.982888165648e-01 3.208750000000e+02-1.015151200322e-01-5.601304745397e-09
    -3.593006806013e-10 2.580000000000e+02 2.413000000000e+03 0.000000000000e+00
     3.600000000000e+00 0.000000000000e+00 2.561137080193e-09 0.000000000000e+00
     9.999000000000e+08                                                         
> EPH E16 FNAV
E16 2026 04 06 10 20 00-2.384069375694e-05-2.501110429876e-12 0.000000000000e+00
     7.900000000000e+01 8.534375000000e+01 3.007268121931e-09 5.286016843019e-01
     4.038214683533e-06 3.711944445968e-04 1.079216599464e-05 5.440616338730e+03
     1.236000000000e+05-9.313225746155e-09 5.240892037676e-01-2.235174179077e-08
     9.639667951892e-01 1.073125000000e+02 3.132622815274e+00-5.359866117081e-09
    -2.710827202548e-10 2.580000000000e+02 2.413000000000e+03 0.000000000000e+00
     3.120000000000e+00 0.000000000000e+00-6.053596735001e-09 0.000000000000e+00
     9.999000000000e+08                                                         
> EPH E21 FNAV
E21 2026 04 06 10 20 00-7.332341047004e-04-2.614797267597e-12 0.000000000000e+00
     7.900000000000e+01 1.084375000000e+02 2.938693836965e-09-1.687410935301e+00
     4.978850483894e-06 1.213379437104e-04 1.119077205658e-05 5.440616754532e+03
     1.236000000000e+05-3.911554813385e-08 5.275599403377e-01-5.587935447693e-08
     9.620207279334e-01 1.011250000000e+02 1.449262343182e+00-5.277005522747e-09
    -3.089414400796e-10 2.580000000000e+02 2.413000000000e+03 0.000000000000e+00
     3.120000000000e+00 0.000000000000e+00 2.328306436539e-10 0.000000000000e+00
     9.999000000000e+08                                                         
> EPH E23 FNAV
E23 2026 04 06 10 20 00-3.073376137763e-05-1.236344360223e-12 0.000000000000e+00
     7.900000000000e+01 1.039375000000e+02 3.003339386855e-09 3.113374665214e+00
     4.850327968597e-06 2.745673991740e-04 1.151859760284e-05 5.440618391037e+03
     1.236000000000e+05-6.705522537231e-08 5.242146446041e-01-3.166496753693e-08
     9.639458242585e-01 9.575000000000e+01 2.142134801633e+00-5.294506251723e-09
    -2.578678840896e-10 2.580000000000e+02 2.413000000000e+03 0.000000000000e+00
     3.120000000000e+00 0.000000000000e+00-9.313225746155e-10 0.000000000000e+00
     9.999000000000e+08                                                         
> EPH E33 FNAV
E33 2026 04 06 10 20 00-9.751878678799e-06-1.392663762090e-12 0.000000000000e+00
     7.900000000000e+01-8.203125000000e+01 2.621894926733e-09-2.618457268021e+00
    -3.833323717117e-06 1.264952588826e-04 1.484528183937e-06 5.440613309860e+03
     1.236000000000e+05 1.862645149231e-08 2.626808586036e+00 5.587935447693e-08
     9.983050139938e-01 3.263125000000e+02-4.975844270515e-01-5.671307661300e-09
    -2.735828243942e-10 2.580000000000e+02 2.413000000000e+03 0.000000000000e+00
     3.600000000000e+00 0.000000000000e+00-6.519258022308e-09 0.000000000000e+00
     9.999000000000e+08                                                         
> EPH R27 FDMA
R27 2026 04 06 10 45 00-2.622809261084e-04-9.094947017729e-13 1.242000000000e+05
    -7.688033691406e+03-5.806236267090e-01 1.862645149231e-09 1.000000000000e+00
     1.146076464844e+04-2.882205963135e+00 9.313225746155e-10-5.000000000000e+00
     2.144737060547e+04 1.330920219421e+00-9.313225746155e-10 0.000000000000e+00
     1.830000000000e+02 5.587935447693e-09 3.000000000000e+00 5.000000000000e+00
> EPH S37 SBAS
S37 2026 04 06 10 32 16 7.916241884232e-09 0.000000000000e+00 9.999000000000e+08
    -2.541016936000e+04-1.831250000000e-04 0.000000000000e+00 4.700000000000e+01
     3.365026016000e+04 7.325000000000e-04 0.000000000000e+00 8.192000000000e+03
    -3.150120000000e+01 3.088000000000e-03 0.000000000000e+00 1.500000000000e+01
> EPH E25 INAV
E25 2026 04 06 10 20 00 2.198800211772e-05-5.684341886081e-14 0.000000000000e+00
     7.900000000000e+01 8.943750000000e+01 3.005482333260e-09 2.918894683931e+00
     4.101544618607e-06 8.786423131824e-05 1.076050102711e-05 5.440611873627e+03
     1.236000000000e+05-4.470348358154e-08 5.275604860061e-01 2.048909664154e-08
     9.620266395853e-01 1.094375000000e+02 6.729468515089e-03-5.333793602484e-09
    -2.421529437849e-10 5.170000000000e+02 2.413000000000e+03 0.000000000000e+00
     3.120000000000e+00 0.000000000000e+00-6.984919309616e-10-4.656612873077e-10
     9.999000000000e+08                                                         
> EPH S29 SBAS
S29 2026 04 06 10 32 16 1.955777406693e-08 0.000000000000e+00 9.999000000000e+08
    -4.056044800000e+02-8.806250000000e-04 0.000000000000e+00 4.700000000000e+01
     4.215655952000e+04 5.887500000000e-04 0.000000000000e+00 8.192000000000e+03
    -1.762800000000e+00-2.132000000000e-03 0.000000000000e+00 1.500000000000e+01
> EPH E28 FNAV
E28 2026 04 06 10 20 00-3.323983401060e-05-3.097966327914e-12 0.000000000000e+00
     7.900000000000e+01-1.040625000000e+01 3.554433770719e-09-2.559085071319e+00
    -6.463378667831e-07 1.408322714269e-04 6.122514605522e-06 5.440602491379e+03
     1.236000000000e+05 5.029141902924e-08-1.554634676409e+00-1.862645149231e-08
     9.469944570460e-01 2.046875000000e+02-3.069368780078e+00-5.686308286136e-09
     5.150214527108e-10 2.580000000000e+02 2.413000000000e+03 0.000000000000e+00
     3.120000000000e+00 4.800000000000e+01-9.313225746155e-10 0.000000000000e+00
     9.999000000000e+08                                                         
> EPH S30 SBAS
S30 2026 04 06 10 33 36-6.682239472866e-07 0.000000000000e+00 9.999000000000e+08
    -3.232336912000e+04-1.186250000000e-03 0.000000000000e+00 4.700000000000e+01
     2.705755784000e+04-9.056250000000e-04 2.500000000000e-08 8.192000000000e+03
     6.940800000000e+00-3.151600000000e-02 0.000000000000e+00 6.200000000000e+01
> EPH S43 SBAS
S43 2026 04 06 10 33 36-7.865019142628e-07 0.000000000000e+00 9.999000000000e+08
    -1.481004440000e+04-6.812500000000e-05-3.750000000000e-08 4.700000000000e+01
     3.945773584000e+04-9.925000000000e-04-5.000000000000e-08 8.192000000000e+03
     9.777024000000e+02 9.759200000000e-02-2.562500000000e-06 6.100000000000e+01
> EPH S44 SBAS
S44 2026 04 06 10 33 36 3.459863364697e-07 0.000000000000e+00 9.999000000000e+08
     7.285420000000e+03 2.668750000000e-04-1.625000000000e-07 4.700000000000e+01
     4.151118384000e+04-2.176250000000e-03-8.750000000000e-08 8.192000000000e+03
     8.977720000000e+02 1.292680000000e-01-2.312500000000e-06 6.000000000000e+01
> EPH E25 FNAV
E25 2026 04 06 10 20 00 2.198712900281e-05-5.684341886081e-14 0.000000000000e+00
     7.900000000000e+01 8.943750000000e+01 3.005482333260e-09 2.918894683931e+00
     4.101544618607e-06 8.786423131824e-05 1.076050102711e-05 5.440611873627e+03
     1.236000000000e+05-4.470348358154e-08 5.275604860061e-01 2.048909664154e-08
     9.620266395853e-01 1.094375000000e+02 6.729468515089e-03-5.333793602484e-09
    -2.421529437849e-10 2.580000000000e+02 2.413000000000e+03 0.000000000000e+00
     3.120000000000e+00 0.000000000000e+00-6.984919309616e-10 0.000000000000e+00
     9.999000000000e+08                                                         
> EPH S36 SBAS
S36 2026 04 06 10 33 20 0.000000000000e+00 0.000000000000e+00 9.999000000000e+08
     4.200368800000e+04 0.000000000000e+00 0.000000000000e+00 4.700000000000e+01
     3.674846960000e+03 0.000000000000e+00 0.000000000000e+00 8.192000000000e+03
     0.000000000000e+00 0.000000000000e+00 0.000000000000e+00 1.510000000000e+02
> EPH S37 SBAS
S37 2026 04 06 10 33 20 7.916241884232e-09 0.000000000000e+00 9.999000000000e+08
    -2.541018096000e+04-1.775000000000e-04 0.000000000000e+00 4.700000000000e+01
     3.365030712000e+04 7.356250000000e-04 0.000000000000e+00 8.192000000000e+03
    -3.130320000000e+01 3.100000000000e-03 0.000000000000e+00 1.500000000000e+01
> EPH S23 SBAS
S23 2026 04 06 10 33 20 0.000000000000e+00 0.000000000000e+00 9.999000000000e+08
     3.866796400000e+04 0.000000000000e+00 0.000000000000e+00 4.700000000000e+01
     1.681330800000e+04 0.000000000000e+00 0.000000000000e+00 8.192000000000e+03
     0.000000000000e+00 0.000000000000e+00 0.000000000000e+00 1.850000000000e+02
> EPH S29 SBAS
S29 2026 04 06 10 33 20 1.955777406693e-08 0.000000000000e+00 9.999000000000e+08
    -4.056607200000e+02-8.750000000000e-04 0.000000000000e+00 4.700000000000e+01
     4.215659720000e+04 5.906250000000e-04 0.000000000000e+00 8.192000000000e+03
    -1.899200000000e+00-2.132000000000e-03 0.000000000000e+00 1.500000000000e+01
> EPH S22 SBAS
S22 2026 04 06 10 33 36 0.000000000000e+00 0.000000000000e+00 9.999000000000e+08
    -3.389392800000e+04 0.000000000000e+00 0.000000000000e+00 4.700000000000e+01
     2.508018800000e+04 0.000000000000e+00 0.000000000000e+00 8.192000000000e+03
     0.000000000000e+00 0.000000000000e+00 0.000000000000e+00 1.500000000000e+01
> EPH E18 INAV
